KINEIS-2E               
1 62931U 25028D   26186.38045433  .00002111  00000+0  30616-3 0  9994
2 62931  97.8945 237.6261 0002119 102.3762 257.7686 14.77070899 75461
KINEIS-2A               
1 62932U 25028E   26186.09137144  .00002002  00000+0  31649-3 0  9990
2 62932  98.1292 241.5030 0006023 107.8316 252.3549 14.73434079 75247
KINEIS-2B               
1 62934U 25028G   26186.13663709  .00001936  00000+0  30605-3 0  9994
2 62934  97.9659 238.6726 0005033  96.1153 264.0629 14.73435428 75306
KINEIS-4E               
1 63300U 25056A   26186.59891532  .00001945  00000+0  31554-3 0  9994
2 63300  97.9060 309.9851 0003075 102.0877 258.0676 14.72283637 69833
KINEIS-4C               
1 63301U 25056B   26186.61143559  .00001944  00000+0  31520-3 0  9999
2 63301  97.9114 310.2396 0002197 254.7443 105.3522 14.72305179 69842
KINEIS-4D               
1 63302U 25056C   26186.61522830  .00001953  00000+0  31594-3 0  9994
2 63302  97.9035 310.2242 0001020 275.7243  84.3848 14.72407506 69844
KINEIS-4A               
1 63303U 25056D   26186.58202205  .00001989  00000+0  32231-3 0  9990
2 63303  97.9129 310.1336 0001387 170.5058 189.6176 14.72314746 69839
