{"fetched_at":"2026-07-06T08:47:08.463Z","source":"https://celestrak.org/NORAD/elements/gp.php?NAME=KINEIS&FORMAT=JSON","constellation":"kineis","records":[{"OBJECT_NAME":"KINEIS-2E","OBJECT_ID":"2025-028D","EPOCH":"2026-07-05T09:07:51.254112","CLASSIFICATION_TYPE":"U","MEAN_MOTION":14.77070899,"ECCENTRICITY":0.0002119,"INCLINATION":97.8945,"RA_OF_ASC_NODE":237.6261,"ARG_OF_PERICENTER":102.3762,"MEAN_ANOMALY":257.7686,"EPHEMERIS_TYPE":0,"NORAD_CAT_ID":62931,"ELEMENT_SET_NO":999,"REV_AT_EPOCH":7546,"BSTAR":0.00030616,"MEAN_MOTION_DOT":0.00002111,"MEAN_MOTION_DDOT":0},{"OBJECT_NAME":"KINEIS-2A","OBJECT_ID":"2025-028E","EPOCH":"2026-07-05T02:11:34.492416","CLASSIFICATION_TYPE":"U","MEAN_MOTION":14.73434079,"ECCENTRICITY":0.0006023,"INCLINATION":98.1292,"RA_OF_ASC_NODE":241.503,"ARG_OF_PERICENTER":107.8316,"MEAN_ANOMALY":252.3549,"EPHEMERIS_TYPE":0,"NORAD_CAT_ID":62932,"ELEMENT_SET_NO":999,"REV_AT_EPOCH":7524,"BSTAR":0.00031649,"MEAN_MOTION_DOT":0.00002002,"MEAN_MOTION_DDOT":0},{"OBJECT_NAME":"KINEIS-2B","OBJECT_ID":"2025-028G","EPOCH":"2026-07-05T03:16:45.443712","CLASSIFICATION_TYPE":"U","MEAN_MOTION":14.73435428,"ECCENTRICITY":0.0005033,"INCLINATION":97.9659,"RA_OF_ASC_NODE":238.6726,"ARG_OF_PERICENTER":96.1153,"MEAN_ANOMALY":264.0629,"EPHEMERIS_TYPE":0,"NORAD_CAT_ID":62934,"ELEMENT_SET_NO":999,"REV_AT_EPOCH":7530,"BSTAR":0.00030605,"MEAN_MOTION_DOT":0.00001936,"MEAN_MOTION_DDOT":0},{"OBJECT_NAME":"KINEIS-4E","OBJECT_ID":"2025-056A","EPOCH":"2026-07-05T14:22:26.283648","CLASSIFICATION_TYPE":"U","MEAN_MOTION":14.72283637,"ECCENTRICITY":0.00030751,"INCLINATION":97.906,"RA_OF_ASC_NODE":309.9851,"ARG_OF_PERICENTER":102.0877,"MEAN_ANOMALY":258.0676,"EPHEMERIS_TYPE":0,"NORAD_CAT_ID":63300,"ELEMENT_SET_NO":999,"REV_AT_EPOCH":6983,"BSTAR":0.00031553838,"MEAN_MOTION_DOT":0.00001945,"MEAN_MOTION_DDOT":0},{"OBJECT_NAME":"KINEIS-4C","OBJECT_ID":"2025-056B","EPOCH":"2026-07-05T14:40:28.034976","CLASSIFICATION_TYPE":"U","MEAN_MOTION":14.72305179,"ECCENTRICITY":0.00021974,"INCLINATION":97.9114,"RA_OF_ASC_NODE":310.2396,"ARG_OF_PERICENTER":254.7443,"MEAN_ANOMALY":105.3522,"EPHEMERIS_TYPE":0,"NORAD_CAT_ID":63301,"ELEMENT_SET_NO":999,"REV_AT_EPOCH":6984,"BSTAR":0.00031519798,"MEAN_MOTION_DOT":0.00001944,"MEAN_MOTION_DDOT":0},{"OBJECT_NAME":"KINEIS-4D","OBJECT_ID":"2025-056C","EPOCH":"2026-07-05T14:45:55.725120","CLASSIFICATION_TYPE":"U","MEAN_MOTION":14.72407506,"ECCENTRICITY":0.00010207,"INCLINATION":97.9035,"RA_OF_ASC_NODE":310.2242,"ARG_OF_PERICENTER":275.7243,"MEAN_ANOMALY":84.3848,"EPHEMERIS_TYPE":0,"NORAD_CAT_ID":63302,"ELEMENT_SET_NO":999,"REV_AT_EPOCH":6984,"BSTAR":0.0003159441,"MEAN_MOTION_DOT":0.00001953,"MEAN_MOTION_DDOT":0},{"OBJECT_NAME":"KINEIS-4A","OBJECT_ID":"2025-056D","EPOCH":"2026-07-05T13:58:06.705120","CLASSIFICATION_TYPE":"U","MEAN_MOTION":14.72314746,"ECCENTRICITY":0.00013871,"INCLINATION":97.9129,"RA_OF_ASC_NODE":310.1336,"ARG_OF_PERICENTER":170.5058,"MEAN_ANOMALY":189.6176,"EPHEMERIS_TYPE":0,"NORAD_CAT_ID":63303,"ELEMENT_SET_NO":999,"REV_AT_EPOCH":6983,"BSTAR":0.00032231142,"MEAN_MOTION_DOT":0.00001989,"MEAN_MOTION_DDOT":0}]}
